0 INMARSAT 2-F1
1 20918U 90093A   26062.35017459  .00000018  00000-0  00000+0 0  9999
2 20918  12.9834   7.0280 0010041 350.0121 177.3163  0.98874801 46478
0 INMARSAT 2-F2
1 21149U 91018A   26061.89747487  .00000019  00000-0  00000+0 0  9994
2 21149  12.7301   9.8832 0006309 294.6924 249.8040  0.98721323 42409
0 INMARSAT 2-F3
1 21814U 91084B   26062.40649231 -.00000104  00000-0  00000+0 0  9998
2 21814  14.0423  14.1241 0011441  66.7263  91.0257  0.96061353122154
0 INMARSAT 2-F4
1 21940U 92021B   26062.42226786 -.00000045  00000-0  00000+0 0  9992
2 21940  12.0599  16.2642 0005390 192.6654 355.7617  0.97942191 49611
0 INMARSAT 3-F1
1 23839U 96020A   26062.16089362  .00000010  00000-0  00000+0 0  9993
2 23839  10.3812  47.5947 0006067 269.9849 272.7936  0.99996913109195
0 INMARSAT 3-F2
1 24307U 96053A   26062.33871096 -.00000070  00000-0  00000+0 0  9999
2 24307   9.6174  54.9976 0006065 291.6792 192.2327  0.99978357107863
0 INMARSAT 3-F3
1 24674U 96070A   26062.26012748 -.00000248  00000-0  00000+0 0  9995
2 24674  10.0899  50.6523 0006886 270.1526  86.2980  1.00001920106849
0 INMARSAT 3-F4
1 24819U 97027A   26061.72647458 -.00000260  00000-0  00000-0 0  9996
2 24819  11.3320  38.5940 0007047  35.1218 326.7410  0.99502477105005
0 INMARSAT 3-F5
1 25153U 98006B   26062.36178800 -.00000301  00000-0  00000+0 0  9992
2 25153   9.4575  54.2955 0005371 294.0726 248.9613  1.00268263102839
0 INMARSAT 4-F1
1 28628U 05009A   26062.26524082  .00000020  00000-0  00000+0 0  9996
2 28628   5.0254  42.7325 0002637 322.8307  69.0567  1.00272661 76618
0 INMARSAT 4-F2
1 28899U 05044A   26062.41795726 -.00000272  00000-0  00000+0 0  9997
2 28899   4.9557  43.8032 0002611 316.7230  94.6154  1.00271617 74465
0 INMARSAT 4-F3
1 33278U 08039A   26062.42443455 -.00000152  00000-0  00000+0 0  9998
2 33278   4.2019  31.1777 0002417 322.6759 222.1289  1.00271517 45486
0 INMARSAT 5-F1
1 39476U 13073A   26062.50359734  .00000014  00000-0  00000+0 0  9999
2 39476   0.0209 126.4028 0000543 208.4926  70.2103  1.00268817 44518
0 INMARSAT 5-F2
1 40384U 15005A   26062.43284126 -.00000300  00000-0  00000+0 0  9999
2 40384   0.0207 127.9303 0000601 113.2676  20.7689  1.00270019 39934
0 INMARSAT 5-F3
1 40882U 15042A   26062.47128284  .00000035  00000-0  00000+0 0  9993
2 40882   0.0203 127.3947 0001375 263.8816 119.2231  1.00269188 38513
0 INMARSAT 5-F4
1 42698U 17025A   26062.33794814  .00000061  00000-0  00000+0 0  9995
2 42698   0.0210 128.7567 0000179 177.2054  33.2811  1.00269613 32217
0 INMARSAT GX5
1 44801U 19080B   26062.30337437  .00000059  00000-0  00000+0 0  9994
2 44801   0.0488  12.6241 0001938 332.3841 296.2439  1.00271345  5722
0 INMARSAT 6-F1
1 50319U 21128A   26062.51946052 -.00000186  00000-0  00000+0 0  9995
2 50319   0.0199 167.0703 0000115 140.5014 124.4613  1.00271119 15194
0 INMARSAT 6-F2
1 55683U 23022A   26062.42816123 -.00000310  00000-0  00000+0 0  9993
2 55683   5.2606  35.8467 3073598 213.9727 351.2796  1.00959186  9480